{
  "type": "FeatureCollection",
  "features": [
    {
      "type": "Feature",
      "properties": {
        "__gm_id": "feature-5",
        "__gm_shape": "polygon"
      },
      "geometry": {
        "type": "MultiPolygon",
        "coordinates": [
          [
            [
              [
                76.7934647328866,
                19.243168236650064
              ],
              [
                76.80051056124188,
                19.239294531132288
              ],
              [
                76.79697706774192,
                19.233184273754716
              ],
              [
                76.7898254461681,
                19.23705812344157
              ],
              [
                76.7934647328866,
                19.243168236650064
              ]
            ]
          ]
        ]
      },
      "id": "feature-5"
    }
  ]
}