{
  "type": "FeatureCollection",
  "features": [
    {
      "type": "Feature",
      "properties": {
        "__gm_id": "feature-5",
        "__gm_shape": "polygon"
      },
      "geometry": {
        "type": "MultiPolygon",
        "coordinates": [
          [
            [
              [
                76.786563629341,
                19.250305651203476
              ],
              [
                76.82183626144109,
                19.23420921175517
              ],
              [
                76.80560753869071,
                19.2113901962297
              ],
              [
                76.7731500931913,
                19.231396079749572
              ],
              [
                76.786563629341,
                19.250305651203476
              ]
            ]
          ]
        ]
      },
      "id": "feature-5"
    }
  ]
}